{
  "type": "FeatureCollection",
  "features": [
    {
      "type": "Feature",
      "properties": {
        "norad_id": 66561,
        "name": "STARLINK-35305",
        "group": "last-30-days",
        "lat": -15.26992178550685,
        "lon": 44.300062581463585,
        "alt_km": 399.10438310874997,
        "timestamp": "2025-12-22T22:44:19.648560+00:00",
        "meta_object_name": "STARLINK-35305",
        "meta_object_id": "2025-268E",
        "meta_epoch": "2025-12-22T14:00:01.999872",
        "meta_mean_motion": 15.56366954,
        "meta_eccentricity": 0.00013908,
        "meta_inclination": 43.0006,
        "meta_ra_of_asc_node": 63.4845,
        "meta_arg_of_pericenter": 278.3292,
        "meta_mean_anomaly": 176.5547,
        "meta_ephemeris_type": 0,
        "meta_classification_type": "U",
        "meta_norad_cat_id": 66561,
        "meta_element_set_no": 999,
        "meta_rev_at_epoch": 609,
        "meta_bstar": 0.00049519577,
        "meta_mean_motion_dot": 0.00035657,
        "meta_mean_motion_ddot": 0,
        "tle_line1": "1 66561U 25268E   25356.58335648  .00035657  00000+0  49520-3 0  9998",
        "tle_line2": "2 66561  43.0006  63.4845 0001390 278.3292 176.5547 15.56366954  6095"
      },
      "geometry": {
        "type": "Point",
        "coordinates": [
          44.300062581463585,
          -15.26992178550685
        ]
      }
    },
    {
      "type": "Feature",
      "properties": {
        "norad_id": 66562,
        "name": "STARLINK-35579",
        "group": "last-30-days",
        "lat": -16.50841423721048,
        "lon": 42.79603418434423,
        "alt_km": 399.1304668800294,
        "timestamp": "2025-12-22T22:44:19.648573+00:00",
        "meta_object_name": "STARLINK-35579",
        "meta_object_id": "2025-268F",
        "meta_epoch": "2025-12-22T14:00:01.999872",
        "meta_mean_motion": 15.56361172,
        "meta_eccentricity": 0.0001504,
        "meta_inclination": 43.0006,
        "meta_ra_of_asc_node": 63.4895,
        "meta_arg_of_pericenter": 275.9416,
        "meta_mean_anomaly": 177.0232,
        "meta_ephemeris_type": 0,
        "meta_classification_type": "U",
        "meta_norad_cat_id": 66562,
        "meta_element_set_no": 999,
        "meta_rev_at_epoch": 609,
        "meta_bstar": 0.00097670684,
        "meta_mean_motion_dot": 0.00070989,
        "meta_mean_motion_ddot": 0,
        "tle_line1": "1 66562U 25268F   25356.58335648  .00070989  00000+0  97671-3 0  9996",
        "tle_line2": "2 66562  43.0006  63.4895 0001504 275.9416 177.0232 15.56361172  6093"
      },
      "geometry": {
        "type": "Point",
        "coordinates": [
          42.79603418434423,
          -16.50841423721048
        ]
      }
    },
    {
      "type": "Feature",
      "properties": {
        "norad_id": 66563,
        "name": "STARLINK-35437",
        "group": "last-30-days",
        "lat": -14.012297567010936,
        "lon": 45.79717865546418,
        "alt_km": 399.07053720808926,
        "timestamp": "2025-12-22T22:44:19.648584+00:00",
        "meta_object_name": "STARLINK-35437",
        "meta_object_id": "2025-268G",
        "meta_epoch": "2025-12-22T14:00:01.999872",
        "meta_mean_motion": 15.56373065,
        "meta_eccentricity": 0.00015851,
        "meta_inclination": 43.0007,
        "meta_ra_of_asc_node": 63.4795,
        "meta_arg_of_pericenter": 271.0427,
        "meta_mean_anomaly": 185.7595,
        "meta_ephemeris_type": 0,
        "meta_classification_type": "U",
        "meta_norad_cat_id": 66563,
        "meta_element_set_no": 999,
        "meta_rev_at_epoch": 609,
        "meta_bstar": 0.00029876224,
        "meta_mean_motion_dot": 0.00021333,
        "meta_mean_motion_ddot": 0,
        "tle_line1": "1 66563U 25268G   25356.58335648  .00021333  00000+0  29876-3 0  9998",
        "tle_line2": "2 66563  43.0007  63.4795 0001585 271.0427 185.7595 15.56373065  6094"
      },
      "geometry": {
        "type": "Point",
        "coordinates": [
          45.79717865546418,
          -14.012297567010936
        ]
      }
    },
    {
      "type": "Feature",
      "properties": {
        "norad_id": 66564,
        "name": "STARLINK-35358",
        "group": "last-30-days",
        "lat": -12.749767042621151,
        "lon": 47.27307549317375,
        "alt_km": 398.90621942688904,
        "timestamp": "2025-12-22T22:44:19.648598+00:00",
        "meta_object_name": "STARLINK-35358",
        "meta_object_id": "2025-268H",
        "meta_epoch": "2025-12-22T14:00:01.999872",
        "meta_mean_motion": 15.56371959,
        "meta_eccentricity": 0.00015402,
        "meta_inclination": 43.0007,
        "meta_ra_of_asc_node": 63.4747,
        "meta_arg_of_pericenter": 276.0054,
        "meta_mean_anomaly": 182.7149,
        "meta_ephemeris_type": 0,
        "meta_classification_type": "U",
        "meta_norad_cat_id": 66564,
        "meta_element_set_no": 999,
        "meta_rev_at_epoch": 609,
        "meta_bstar": 0.00031275388,
        "meta_mean_motion_dot": 0.00022351,
        "meta_mean_motion_ddot": 0,
        "tle_line1": "1 66564U 25268H   25356.58335648  .00022351  00000+0  31275-3 0  9996",
        "tle_line2": "2 66564  43.0007  63.4747 0001540 276.0054 182.7149 15.56371959  6096"
      },
      "geometry": {
        "type": "Point",
        "coordinates": [
          47.27307549317375,
          -12.749767042621151
        ]
      }
    },
    {
      "type": "Feature",
      "properties": {
        "norad_id": 66565,
        "name": "STARLINK-35893",
        "group": "last-30-days",
        "lat": -11.478105301149565,
        "lon": 48.735197251795974,
        "alt_km": 398.6706449447038,
        "timestamp": "2025-12-22T22:44:19.648609+00:00",
        "meta_object_name": "STARLINK-35893",
        "meta_object_id": "2025-268J",
        "meta_epoch": "2025-12-22T14:00:01.999872",
        "meta_mean_motion": 15.56368606,
        "meta_eccentricity": 0.00016547,
        "meta_inclination": 43.0006,
        "meta_ra_of_asc_node": 63.4698,
        "meta_arg_of_pericenter": 281.036,
        "meta_mean_anomaly": 179.6002,
        "meta_ephemeris_type": 0,
        "meta_classification_type": "U",
        "meta_norad_cat_id": 66565,
        "meta_element_set_no": 999,
        "meta_rev_at_epoch": 609,
        "meta_bstar": 0.00046989363,
        "meta_mean_motion_dot": 0.00033811,
        "meta_mean_motion_ddot": 0,
        "tle_line1": "1 66565U 25268J   25356.58335648  .00033811  00000+0  46989-3 0  9998",
        "tle_line2": "2 66565  43.0006  63.4698 0001654 281.0360 179.6002 15.56368606  6091"
      },
      "geometry": {
        "type": "Point",
        "coordinates": [
          48.735197251795974,
          -11.478105301149565
        ]
      }
    },
    {
      "type": "Feature",
      "properties": {
        "norad_id": 66566,
        "name": "STARLINK-35871",
        "group": "last-30-days",
        "lat": -10.19878755720987,
        "lon": 50.18456983644343,
        "alt_km": 398.7315080842154,
        "timestamp": "2025-12-22T22:44:19.648620+00:00",
        "meta_object_name": "STARLINK-35871",
        "meta_object_id": "2025-268K",
        "meta_epoch": "2025-12-22T14:00:01.999872",
        "meta_mean_motion": 15.56369876,
        "meta_eccentricity": 0.0001517,
        "meta_inclination": 43.0007,
        "meta_ra_of_asc_node": 63.4648,
        "meta_arg_of_pericenter": 274.4315,
        "meta_mean_anomaly": 188.1255,
        "meta_ephemeris_type": 0,
        "meta_classification_type": "U",
        "meta_norad_cat_id": 66566,
        "meta_element_set_no": 999,
        "meta_rev_at_epoch": 609,
        "meta_bstar": 0.00035125745,
        "meta_mean_motion_dot": 0.00025155,
        "meta_mean_motion_ddot": 0,
        "tle_line1": "1 66566U 25268K   25356.58335648  .00025155  00000+0  35126-3 0  9992",
        "tle_line2": "2 66566  43.0007  63.4648 0001517 274.4315 188.1255 15.56369876  6097"
      },
      "geometry": {
        "type": "Point",
        "coordinates": [
          50.18456983644343,
          -10.19878755720987
        ]
      }
    },
    {
      "type": "Feature",
      "properties": {
        "norad_id": 66567,
        "name": "STARLINK-35825",
        "group": "last-30-days",
        "lat": -8.913946219647807,
        "lon": 51.62148019182275,
        "alt_km": 398.49836260934535,
        "timestamp": "2025-12-22T22:44:19.648631+00:00",
        "meta_object_name": "STARLINK-35825",
        "meta_object_id": "2025-268L",
        "meta_epoch": "2025-12-22T14:00:01.999872",
        "meta_mean_motion": 15.56364843,
        "meta_eccentricity": 0.00014571,
        "meta_inclination": 43.0007,
        "meta_ra_of_asc_node": 63.46,
        "meta_arg_of_pericenter": 284.1007,
        "meta_mean_anomaly": 180.3809,
        "meta_ephemeris_type": 0,
        "meta_classification_type": "U",
        "meta_norad_cat_id": 66567,
        "meta_element_set_no": 999,
        "meta_rev_at_epoch": 609,
        "meta_bstar": 0.00036193735,
        "meta_mean_motion_dot": 0.00025929,
        "meta_mean_motion_ddot": 0,
        "tle_line1": "1 66567U 25268L   25356.58335648  .00025929  00000+0  36194-3 0  9998",
        "tle_line2": "2 66567  43.0007  63.4600 0001457 284.1007 180.3809 15.56364843  6093"
      },
      "geometry": {
        "type": "Point",
        "coordinates": [
          51.62148019182275,
          -8.913946219647807
        ]
      }
    }
  ]
}